{
  "type": "FeatureCollection",
  "features": [
    {
      "type": "Feature",
      "properties": {
        "norad_id": 41866,
        "name": "GOES 16",
        "group": "weather",
        "lat": 0.024560330813487373,
        "lon": -137.544703988194,
        "alt_km": 35774.18739641903,
        "timestamp": "2025-12-06T16:45:42.370246+00:00",
        "meta_object_name": "GOES 16",
        "meta_object_id": "2016-071A",
        "meta_epoch": "2025-12-06T06:19:09.293664",
        "meta_mean_motion": 1.00271361,
        "meta_eccentricity": 0.00035358,
        "meta_inclination": 0.0627,
        "meta_ra_of_asc_node": 108.4623,
        "meta_arg_of_pericenter": 150.7148,
        "meta_mean_anomaly": 166.2474,
        "meta_ephemeris_type": 0,
        "meta_classification_type": "U",
        "meta_norad_cat_id": 41866,
        "meta_element_set_no": 999,
        "meta_rev_at_epoch": 3316,
        "meta_bstar": 0,
        "meta_mean_motion_dot": -8.3e-07,
        "meta_mean_motion_ddot": 0,
        "tle_line1": "1 41866U 16071A   25340.26330201 -.00000083  00000+0  00000+0 0  9991",
        "tle_line2": "2 41866   0.0627 108.4623 0003535 150.7148 166.2474  1.00271361 33162"
      },
      "geometry": {
        "type": "Point",
        "coordinates": [
          -137.544703988194,
          0.024560330813487373
        ]
      }
    },
    {
      "type": "Feature",
      "properties": {
        "norad_id": 41882,
        "name": "FENGYUN 4A",
        "group": "weather",
        "lat": 0.2937825508406633,
        "lon": 90.9061076786609,
        "alt_km": 35799.706493603284,
        "timestamp": "2025-12-06T16:45:42.370258+00:00",
        "meta_object_name": "FENGYUN 4A",
        "meta_object_id": "2016-077A",
        "meta_epoch": "2025-12-06T05:41:35.393280",
        "meta_mean_motion": 1.00276729,
        "meta_eccentricity": 0.00050304,
        "meta_inclination": 1.8319,
        "meta_ra_of_asc_node": 82.4579,
        "meta_arg_of_pericenter": 142.9766,
        "meta_mean_anomaly": 59.0342,
        "meta_ephemeris_type": 0,
        "meta_classification_type": "U",
        "meta_norad_cat_id": 41882,
        "meta_element_set_no": 999,
        "meta_rev_at_epoch": 3299,
        "meta_bstar": 0,
        "meta_mean_motion_dot": -3.49e-06,
        "meta_mean_motion_ddot": 0,
        "tle_line1": "1 41882U 16077A   25340.23721520 -.00000349  00000+0  00000+0 0  9995",
        "tle_line2": "2 41882   1.8319  82.4579 0005030 142.9766  59.0342  1.00276729 32995"
      },
      "geometry": {
        "type": "Point",
        "coordinates": [
          90.9061076786609,
          0.2937825508406633
        ]
      }
    },
    {
      "type": "Feature",
      "properties": {
        "norad_id": 41884,
        "name": "CYGFM05",
        "group": "weather",
        "lat": 26.00846433759824,
        "lon": -137.71328635484917,
        "alt_km": 413.21720055540027,
        "timestamp": "2025-12-06T16:45:42.370283+00:00",
        "meta_object_name": "CYGFM05",
        "meta_object_id": "2016-078A",
        "meta_epoch": "2025-12-06T00:43:06.354624",
        "meta_mean_motion": 15.47267289,
        "meta_eccentricity": 0.00094336,
        "meta_inclination": 34.9593,
        "meta_ra_of_asc_node": 90.9471,
        "meta_arg_of_pericenter": 120.2641,
        "meta_mean_anomaly": 239.9015,
        "meta_ephemeris_type": 0,
        "meta_classification_type": "U",
        "meta_norad_cat_id": 41884,
        "meta_element_set_no": 999,
        "meta_rev_at_epoch": 49872,
        "meta_bstar": 0.00050795434,
        "meta_mean_motion_dot": 0.00026763,
        "meta_mean_motion_ddot": 0,
        "tle_line1": "1 41884U 16078A   25340.02993466  .00026763  00000+0  50795-3 0  9992",
        "tle_line2": "2 41884  34.9593  90.9471 0009433 120.2641 239.9015 15.47267289498725"
      },
      "geometry": {
        "type": "Point",
        "coordinates": [
          -137.71328635484917,
          26.00846433759824
        ]
      }
    },
    {
      "type": "Feature",
      "properties": {
        "norad_id": 41885,
        "name": "CYGFM04",
        "group": "weather",
        "lat": -25.866085650885985,
        "lon": 17.539612121226153,
        "alt_km": 423.60077568085035,
        "timestamp": "2025-12-06T16:45:42.370296+00:00",
        "meta_object_name": "CYGFM04",
        "meta_object_id": "2016-078B",
        "meta_epoch": "2025-12-06T06:09:17.672256",
        "meta_mean_motion": 15.49961935,
        "meta_eccentricity": 0.00086591,
        "meta_inclination": 34.9353,
        "meta_ra_of_asc_node": 64.4321,
        "meta_arg_of_pericenter": 151.3281,
        "meta_mean_anomaly": 208.7919,
        "meta_ephemeris_type": 0,
        "meta_classification_type": "U",
        "meta_norad_cat_id": 41885,
        "meta_element_set_no": 999,
        "meta_rev_at_epoch": 49893,
        "meta_bstar": 0.0005769978,
        "meta_mean_motion_dot": 0.00033454,
        "meta_mean_motion_ddot": 0,
        "tle_line1": "1 41885U 16078B   25340.25645454  .00033454  00000+0  57700-3 0  9997",
        "tle_line2": "2 41885  34.9353  64.4321 0008659 151.3281 208.7919 15.49961935498935"
      },
      "geometry": {
        "type": "Point",
        "coordinates": [
          17.539612121226153,
          -25.866085650885985
        ]
      }
    },
    {
      "type": "Feature",
      "properties": {
        "norad_id": 41886,
        "name": "CYGFM02",
        "group": "weather",
        "lat": -31.642241472687633,
        "lon": -2.009502650245468,
        "alt_km": 419.9977869036602,
        "timestamp": "2025-12-06T16:45:42.370308+00:00",
        "meta_object_name": "CYGFM02",
        "meta_object_id": "2016-078C",
        "meta_epoch": "2025-12-05T22:30:50.003136",
        "meta_mean_motion": 15.51291349,
        "meta_eccentricity": 0.00103484,
        "meta_inclination": 34.9442,
        "meta_ra_of_asc_node": 64.9325,
        "meta_arg_of_pericenter": 147.7014,
        "meta_mean_anomaly": 212.4344,
        "meta_ephemeris_type": 0,
        "meta_classification_type": "U",
        "meta_norad_cat_id": 41886,
        "meta_element_set_no": 999,
        "meta_rev_at_epoch": 49901,
        "meta_bstar": 0.00052224051,
        "meta_mean_motion_dot": 0.00031761,
        "meta_mean_motion_ddot": 0,
        "tle_line1": "1 41886U 16078C   25339.93807874  .00031761  00000+0  52224-3 0  9992",
        "tle_line2": "2 41886  34.9442  64.9325 0010348 147.7014 212.4344 15.51291349499017"
      },
      "geometry": {
        "type": "Point",
        "coordinates": [
          -2.009502650245468,
          -31.642241472687633
        ]
      }
    },
    {
      "type": "Feature",
      "properties": {
        "norad_id": 41887,
        "name": "CYGFM01",
        "group": "weather",
        "lat": 10.313568972382448,
        "lon": -106.13176906302556,
        "alt_km": 416.0497351406102,
        "timestamp": "2025-12-06T16:45:42.370318+00:00",
        "meta_object_name": "CYGFM01",
        "meta_object_id": "2016-078D",
        "meta_epoch": "2025-12-06T00:35:17.858400",
        "meta_mean_motion": 15.47836768,
        "meta_eccentricity": 0.00090115,
        "meta_inclination": 34.9424,
        "meta_ra_of_asc_node": 93.38,
        "meta_arg_of_pericenter": 110.5486,
        "meta_mean_anomaly": 249.6203,
        "meta_ephemeris_type": 0,
        "meta_classification_type": "U",
        "meta_norad_cat_id": 41887,
        "meta_element_set_no": 999,
        "meta_rev_at_epoch": 49866,
        "meta_bstar": 0.00052334662,
        "meta_mean_motion_dot": 0.00028131,
        "meta_mean_motion_ddot": 0,
        "tle_line1": "1 41887U 16078D   25340.02451225  .00028131  00000+0  52335-3 0  9990",
        "tle_line2": "2 41887  34.9424  93.3800 0009011 110.5486 249.6203 15.47836768498669"
      },
      "geometry": {
        "type": "Point",
        "coordinates": [
          -106.13176906302556,
          10.313568972382448
        ]
      }
    },
    {
      "type": "Feature",
      "properties": {
        "norad_id": 41888,
        "name": "CYGFM08",
        "group": "weather",
        "lat": -2.3332612732088562,
        "lon": -104.6168731761683,
        "alt_km": 413.1672460424579,
        "timestamp": "2025-12-06T16:45:42.370330+00:00",
        "meta_object_name": "CYGFM08",
        "meta_object_id": "2016-078E",
        "meta_epoch": "2025-12-05T22:57:29.299968",
        "meta_mean_motion": 15.49018099,
        "meta_eccentricity": 0.00107787,
        "meta_inclination": 34.946,
        "meta_ra_of_asc_node": 76.8947,
        "meta_arg_of_pericenter": 135.6475,
        "meta_mean_anomaly": 224.5112,
        "meta_ephemeris_type": 0,
        "meta_classification_type": "U",
        "meta_norad_cat_id": 41888,
        "meta_element_set_no": 999,
        "meta_rev_at_epoch": 49888,
        "meta_bstar": 0.00051415342,
        "meta_mean_motion_dot": 0.00028831,
        "meta_mean_motion_ddot": 0,
        "tle_line1": "1 41888U 16078E   25339.95658912  .00028831  00000+0  51415-3 0  9998",
        "tle_line2": "2 41888  34.9460  76.8947 0010778 135.6475 224.5112 15.49018099498882"
      },
      "geometry": {
        "type": "Point",
        "coordinates": [
          -104.6168731761683,
          -2.3332612732088562
        ]
      }
    }
  ]
}